[{"OBJECT_NAME":"FLOCK 4Q-13","OBJECT_ID":"2023-174CA","EPOCH":"2026-04-25T17:12:39.558528","MEAN_MOTION":15.49371834,"ECCENTRICITY":0.00051574,"INCLINATION":97.3989,"RA_OF_ASC_NODE":205.0926,"ARG_OF_PERICENTER":352.074,"MEAN_ANOMALY":8.0429,"EPHEMERIS_TYPE":0,"CLASSIFICATION_TYPE":"U","NORAD_CAT_ID":58328,"ELEMENT_SET_NO":999,"REV_AT_EPOCH":13754,"BSTAR":0.00045143628,"MEAN_MOTION_DOT":0.00024706,"MEAN_MOTION_DDOT":0},{"OBJECT_NAME":"FLOCK 4BE-18","OBJECT_ID":"2024-149N","EPOCH":"2026-04-25T19:23:00.445056","MEAN_MOTION":15.40140489,"ECCENTRICITY":0.00050478,"INCLINATION":97.3728,"RA_OF_ASC_NODE":199.0589,"ARG_OF_PERICENTER":95.2644,"MEAN_ANOMALY":264.9178,"EPHEMERIS_TYPE":0,"CLASSIFICATION_TYPE":"U","NORAD_CAT_ID":60480,"ELEMENT_SET_NO":999,"REV_AT_EPOCH":9424,"BSTAR":0.00048516664,"MEAN_MOTION_DOT":0.00019395,"MEAN_MOTION_DDOT":0},{"OBJECT_NAME":"FLOCK 4BE-7","OBJECT_ID":"2024-149P","EPOCH":"2026-04-25T18:06:47.134944","MEAN_MOTION":15.38135187,"ECCENTRICITY":0.00042942,"INCLINATION":97.376,"RA_OF_ASC_NODE":198.4655,"ARG_OF_PERICENTER":101.1711,"MEAN_ANOMALY":259.0017,"EPHEMERIS_TYPE":0,"CLASSIFICATION_TYPE":"U","NORAD_CAT_ID":60481,"ELEMENT_SET_NO":999,"REV_AT_EPOCH":9418,"BSTAR":0.00058532634,"MEAN_MOTION_DOT":0.00021935,"MEAN_MOTION_DDOT":0},{"OBJECT_NAME":"FLOCK 4BE-26","OBJECT_ID":"2024-149S","EPOCH":"2026-04-25T18:22:39.402912","MEAN_MOTION":15.5504717,"ECCENTRICITY":0.0003137,"INCLINATION":97.3686,"RA_OF_ASC_NODE":199.6671,"ARG_OF_PERICENTER":144.2932,"MEAN_ANOMALY":215.8533,"EPHEMERIS_TYPE":0,"CLASSIFICATION_TYPE":"U","NORAD_CAT_ID":60484,"ELEMENT_SET_NO":999,"REV_AT_EPOCH":9428,"BSTAR":0.0020125753,"MEAN_MOTION_DOT":0.00137201,"MEAN_MOTION_DDOT":0},{"OBJECT_NAME":"FLOCK 4BE-36","OBJECT_ID":"2024-149U","EPOCH":"2026-04-25T17:51:50.013504","MEAN_MOTION":15.41041704,"ECCENTRICITY":0.00051648,"INCLINATION":97.3742,"RA_OF_ASC_NODE":199.613,"ARG_OF_PERICENTER":103.0188,"MEAN_ANOMALY":257.1635,"EPHEMERIS_TYPE":0,"CLASSIFICATION_TYPE":"U","NORAD_CAT_ID":60486,"ELEMENT_SET_NO":999,"REV_AT_EPOCH":9427,"BSTAR":0.00042094802,"MEAN_MOTION_DOT":0.00017321,"MEAN_MOTION_DDOT":0},{"OBJECT_NAME":"FLOCK 4BE-25","OBJECT_ID":"2024-149V","EPOCH":"2026-04-25T17:13:11.485920","MEAN_MOTION":15.37443684,"ECCENTRICITY":0.00037652,"INCLINATION":97.3798,"RA_OF_ASC_NODE":198.5684,"ARG_OF_PERICENTER":100.6877,"MEAN_ANOMALY":259.4792,"EPHEMERIS_TYPE":0,"CLASSIFICATION_TYPE":"U","NORAD_CAT_ID":60487,"ELEMENT_SET_NO":999,"REV_AT_EPOCH":9417,"BSTAR":0.00037542607,"MEAN_MOTION_DOT":0.00013713,"MEAN_MOTION_DDOT":0},{"OBJECT_NAME":"FLOCK 4BE-31","OBJECT_ID":"2024-149W","EPOCH":"2026-04-25T18:00:51.389856","MEAN_MOTION":15.42071355,"ECCENTRICITY":0.00040527,"INCLINATION":97.3798,"RA_OF_ASC_NODE":200.3424,"ARG_OF_PERICENTER":106.1292,"MEAN_ANOMALY":254.0402,"EPHEMERIS_TYPE":0,"CLASSIFICATION_TYPE":"U","NORAD_CAT_ID":60488,"ELEMENT_SET_NO":999,"REV_AT_EPOCH":9429,"BSTAR":0.00048309031,"MEAN_MOTION_DOT":0.00020587,"MEAN_MOTION_DDOT":0},{"OBJECT_NAME":"FLOCK 4BE-20","OBJECT_ID":"2024-149X","EPOCH":"2026-04-25T18:49:44.758848","MEAN_MOTION":15.36658475,"ECCENTRICITY":0.00053107,"INCLINATION":97.3697,"RA_OF_ASC_NODE":197.6477,"ARG_OF_PERICENTER":101.4375,"MEAN_ANOMALY":258.7466,"EPHEMERIS_TYPE":0,"CLASSIFICATION_TYPE":"U","NORAD_CAT_ID":60489,"ELEMENT_SET_NO":999,"REV_AT_EPOCH":9416,"BSTAR":0.00041182751,"MEAN_MOTION_DOT":0.00014679,"MEAN_MOTION_DDOT":0},{"OBJECT_NAME":"FLOCK 4BE-23","OBJECT_ID":"2024-149Y","EPOCH":"2026-04-25T18:17:41.925120","MEAN_MOTION":15.36296903,"ECCENTRICITY":0.00051414,"INCLINATION":97.378,"RA_OF_ASC_NODE":197.9725,"ARG_OF_PERICENTER":107.3195,"MEAN_ANOMALY":252.8611,"EPHEMERIS_TYPE":0,"CLASSIFICATION_TYPE":"U","NORAD_CAT_ID":60490,"ELEMENT_SET_NO":999,"REV_AT_EPOCH":9414,"BSTAR":0.00038908443,"MEAN_MOTION_DOT":0.00013701,"MEAN_MOTION_DDOT":0},{"OBJECT_NAME":"FLOCK 4BE-15","OBJECT_ID":"2024-149Z","EPOCH":"2026-04-25T17:50:37.527360","MEAN_MOTION":15.48651367,"ECCENTRICITY":0.00056607,"INCLINATION":97.3709,"RA_OF_ASC_NODE":199.605,"ARG_OF_PERICENTER":174.2722,"MEAN_ANOMALY":185.8595,"EPHEMERIS_TYPE":0,"CLASSIFICATION_TYPE":"U","NORAD_CAT_ID":60491,"ELEMENT_SET_NO":999,"REV_AT_EPOCH":9428,"BSTAR":0.0017547751,"MEAN_MOTION_DOT":0.00094757,"MEAN_MOTION_DDOT":0},{"OBJECT_NAME":"FLOCK 4BE-17","OBJECT_ID":"2024-149AA","EPOCH":"2026-04-25T17:59:45.962592","MEAN_MOTION":15.38224718,"ECCENTRICITY":0.00044713,"INCLINATION":97.3776,"RA_OF_ASC_NODE":198.7682,"ARG_OF_PERICENTER":99.952,"MEAN_ANOMALY":260.223,"EPHEMERIS_TYPE":0,"CLASSIFICATION_TYPE":"U","NORAD_CAT_ID":60492,"ELEMENT_SET_NO":999,"REV_AT_EPOCH":9419,"BSTAR":0.00042007336,"MEAN_MOTION_DOT":0.00015753,"MEAN_MOTION_DDOT":0},{"OBJECT_NAME":"FLOCK 4BE-22","OBJECT_ID":"2024-149AC","EPOCH":"2026-04-25T18:39:26.334432","MEAN_MOTION":15.39539922,"ECCENTRICITY":0.0005126,"INCLINATION":97.3732,"RA_OF_ASC_NODE":198.9083,"ARG_OF_PERICENTER":105.2766,"MEAN_ANOMALY":254.9047,"EPHEMERIS_TYPE":0,"CLASSIFICATION_TYPE":"U","NORAD_CAT_ID":60494,"ELEMENT_SET_NO":999,"REV_AT_EPOCH":9423,"BSTAR":0.00045373377,"MEAN_MOTION_DOT":0.00017775,"MEAN_MOTION_DDOT":0},{"OBJECT_NAME":"FLOCK 4BE-34","OBJECT_ID":"2024-149AD","EPOCH":"2026-04-25T19:05:38.740992","MEAN_MOTION":15.39611827,"ECCENTRICITY":0.00053958,"INCLINATION":97.378,"RA_OF_ASC_NODE":199.7135,"ARG_OF_PERICENTER":112.0201,"MEAN_ANOMALY":248.1619,"EPHEMERIS_TYPE":0,"CLASSIFICATION_TYPE":"U","NORAD_CAT_ID":60495,"ELEMENT_SET_NO":999,"REV_AT_EPOCH":9426,"BSTAR":0.00038981403,"MEAN_MOTION_DOT":0.00015291,"MEAN_MOTION_DDOT":0},{"OBJECT_NAME":"FLOCK 4BE-32","OBJECT_ID":"2024-149AF","EPOCH":"2026-04-25T19:02:26.978784","MEAN_MOTION":15.40353946,"ECCENTRICITY":0.00053042,"INCLINATION":97.3719,"RA_OF_ASC_NODE":199.2283,"ARG_OF_PERICENTER":109.9074,"MEAN_ANOMALY":250.2745,"EPHEMERIS_TYPE":0,"CLASSIFICATION_TYPE":"U","NORAD_CAT_ID":60497,"ELEMENT_SET_NO":999,"REV_AT_EPOCH":9426,"BSTAR":0.00041710369,"MEAN_MOTION_DOT":0.00016775,"MEAN_MOTION_DDOT":0},{"OBJECT_NAME":"FLOCK 4BE-30","OBJECT_ID":"2024-149AH","EPOCH":"2026-04-25T22:06:05.632992","MEAN_MOTION":15.45699017,"ECCENTRICITY":0.00036613,"INCLINATION":97.3788,"RA_OF_ASC_NODE":200.1529,"ARG_OF_PERICENTER":169.1188,"MEAN_ANOMALY":191.0141,"EPHEMERIS_TYPE":0,"CLASSIFICATION_TYPE":"U","NORAD_CAT_ID":60499,"ELEMENT_SET_NO":999,"REV_AT_EPOCH":9367,"BSTAR":0.0020459042,"MEAN_MOTION_DOT":0.00099839,"MEAN_MOTION_DDOT":0},{"OBJECT_NAME":"FLOCK 4BE-11","OBJECT_ID":"2024-149AK","EPOCH":"2026-04-25T16:29:01.213440","MEAN_MOTION":15.4119991,"ECCENTRICITY":0.00053572,"INCLINATION":97.37,"RA_OF_ASC_NODE":199.2984,"ARG_OF_PERICENTER":109.816,"MEAN_ANOMALY":250.3665,"EPHEMERIS_TYPE":0,"CLASSIFICATION_TYPE":"U","NORAD_CAT_ID":60501,"ELEMENT_SET_NO":999,"REV_AT_EPOCH":9426,"BSTAR":0.00042707131,"MEAN_MOTION_DOT":0.00017668,"MEAN_MOTION_DDOT":0}]
